{"type":"FeatureCollection","features":[{"type":"Feature","geometry":{"type":"Point","coordinates":[-53.29814399999998,-20.012241999999958]},"properties":{"well_id":"3500068739","municipality":"Ribas do Rio Pardo","hydro_unit":"Grupo Caiuá","domain":"Granular","layer_code":"T06","layer_name":"Cadastro identificado como RIMAS","latest_evidence_date":"2023-04-26","latest_evidence_age_years":3.3429844555329677,"dated_domains_n":1,"time_series_status":"UNKNOWN_SERIE_TEMPORAL_NAO_ADQUIRIDA"}},{"type":"Feature","geometry":{"type":"Point","coordinates":[-51.689952999999946,-19.325046999999927]},"properties":{"well_id":"3500068743","municipality":"Paranaíba","hydro_unit":"Grupo Bauru","domain":"Granular","layer_code":"T06","layer_name":"Cadastro identificado como RIMAS","latest_evidence_date":"2023-05-29","latest_evidence_age_years":3.252633524302347,"dated_domains_n":1,"time_series_status":"UNKNOWN_SERIE_TEMPORAL_NAO_ADQUIRIDA"}},{"type":"Feature","geometry":{"type":"Point","coordinates":[-52.28885299999996,-19.99198599999994]},"properties":{"well_id":"3500068742","municipality":"Três Lagoas","hydro_unit":"Grupo Caiuá","domain":"Granular","layer_code":"T06","layer_name":"Cadastro identificado como RIMAS","latest_evidence_date":"2023-05-19","latest_evidence_age_years":3.280012594372232,"dated_domains_n":1,"time_series_status":"UNKNOWN_SERIE_TEMPORAL_NAO_ADQUIRIDA"}},{"type":"Feature","geometry":{"type":"Point","coordinates":[-51.143888999999945,-20.144999999999982]},"properties":{"well_id":"3500026837","municipality":"Aparecida do Taboado","hydro_unit":"Grupo Caiuá","domain":"Granular","layer_code":"T06","layer_name":"Cadastro identificado como RIMAS","latest_evidence_date":"2023-03-13","latest_evidence_age_years":3.463452363840462,"dated_domains_n":3,"time_series_status":"UNKNOWN_SERIE_TEMPORAL_NAO_ADQUIRIDA"}},{"type":"Feature","geometry":{"type":"Point","coordinates":[-53.75111099999998,-20.478332999999964]},"properties":{"well_id":"3500028111","municipality":"Ribas do Rio Pardo","hydro_unit":"Grupo Caiuá","domain":"Granular","layer_code":"T06","layer_name":"Cadastro identificado como RIMAS","latest_evidence_date":"2023-11-30","latest_evidence_age_years":2.746120728009473,"dated_domains_n":3,"time_series_status":"UNKNOWN_SERIE_TEMPORAL_NAO_ADQUIRIDA"}},{"type":"Feature","geometry":{"type":"Point","coordinates":[-53.63638899999995,-18.682777999999928]},"properties":{"well_id":"3500034022","municipality":"Figueirão","hydro_unit":"Formação Botucatu","domain":"Granular","layer_code":"T06","layer_name":"Cadastro identificado como RIMAS","latest_evidence_date":"2023-12-01","latest_evidence_age_years":2.7433828210024847,"dated_domains_n":3,"time_series_status":"UNKNOWN_SERIE_TEMPORAL_NAO_ADQUIRIDA"}},{"type":"Feature","geometry":{"type":"Point","coordinates":[-53.91916699999996,-22.369166999999948]},"properties":{"well_id":"3500026836","municipality":"Ivinhema","hydro_unit":"Grupo Caiuá","domain":"Granular","layer_code":"T06","layer_name":"Cadastro identificado como RIMAS","latest_evidence_date":"2023-11-27","latest_evidence_age_years":2.7543344490304387,"dated_domains_n":3,"time_series_status":"UNKNOWN_SERIE_TEMPORAL_NAO_ADQUIRIDA"}},{"type":"Feature","geometry":{"type":"Point","coordinates":[-54.326666999999986,-19.25499999999994]},"properties":{"well_id":"3500028109","municipality":"São Gabriel do Oeste","hydro_unit":"Formação Botucatu","domain":"Granular","layer_code":"T06","layer_name":"Cadastro identificado como RIMAS","latest_evidence_date":"2023-12-01","latest_evidence_age_years":2.7433828210024847,"dated_domains_n":3,"time_series_status":"UNKNOWN_SERIE_TEMPORAL_NAO_ADQUIRIDA"}},{"type":"Feature","geometry":{"type":"Point","coordinates":[-52.819721999999956,-20.46111099999996]},"properties":{"well_id":"3500029180","municipality":"Água Clara","hydro_unit":"Grupo Caiuá","domain":"Granular","layer_code":"T06","layer_name":"Cadastro identificado como RIMAS","latest_evidence_date":"2023-11-30","latest_evidence_age_years":2.746120728009473,"dated_domains_n":3,"time_series_status":"UNKNOWN_SERIE_TEMPORAL_NAO_ADQUIRIDA"}},{"type":"Feature","geometry":{"type":"Point","coordinates":[-54.082221999999945,-19.63777799999997]},"properties":{"well_id":"3500026838","municipality":"Camapuã","hydro_unit":"Formação Serra Geral","domain":"Fraturada","layer_code":"T06","layer_name":"Cadastro identificado como RIMAS","latest_evidence_date":"2023-12-01","latest_evidence_age_years":2.7433828210024847,"dated_domains_n":3,"time_series_status":"UNKNOWN_SERIE_TEMPORAL_NAO_ADQUIRIDA"}},{"type":"Feature","geometry":{"type":"Point","coordinates":[-55.819721999999956,-21.159999999999968]},"properties":{"well_id":"3500028107","municipality":"Nioaque","hydro_unit":"Formação Botucatu","domain":"Granular","layer_code":"T06","layer_name":"Cadastro identificado como RIMAS","latest_evidence_date":"2023-07-17","latest_evidence_age_years":3.11847608095991,"dated_domains_n":3,"time_series_status":"UNKNOWN_SERIE_TEMPORAL_NAO_ADQUIRIDA"}},{"type":"Feature","geometry":{"type":"Point","coordinates":[-54.728332999999964,-18.477499999999964]},"properties":{"well_id":"3500026839","municipality":"Coxim","hydro_unit":"Formação Furnas","domain":"Granular","layer_code":"T06","layer_name":"Cadastro identificado como RIMAS","latest_evidence_date":"2020-09-12","latest_evidence_age_years":5.960423554213981,"dated_domains_n":3,"time_series_status":"UNKNOWN_SERIE_TEMPORAL_NAO_ADQUIRIDA"}},{"type":"Feature","geometry":{"type":"Point","coordinates":[-51.933055999999965,-19.738332999999955]},"properties":{"well_id":"3500034020","municipality":"Inocência","hydro_unit":"Grupo Bauru","domain":"Granular","layer_code":"T06","layer_name":"Cadastro identificado como RIMAS","latest_evidence_date":"2023-12-04","latest_evidence_age_years":2.735169099981519,"dated_domains_n":3,"time_series_status":"UNKNOWN_SERIE_TEMPORAL_NAO_ADQUIRIDA"}},{"type":"Feature","geometry":{"type":"Point","coordinates":[-53.53642499999995,-21.02227799999997]},"properties":{"well_id":"3500068740","municipality":"Ribas do Rio Pardo","hydro_unit":"Grupo Caiuá","domain":"Granular","layer_code":"T06","layer_name":"Cadastro identificado como RIMAS","latest_evidence_date":"2023-04-20","latest_evidence_age_years":3.359411897574899,"dated_domains_n":1,"time_series_status":"UNKNOWN_SERIE_TEMPORAL_NAO_ADQUIRIDA"}},{"type":"Feature","geometry":{"type":"Point","coordinates":[-54.787777999999946,-19.987777999999935]},"properties":{"well_id":"3500028108","municipality":"Rochedo","hydro_unit":"Formação Botucatu","domain":"Granular","layer_code":"T06","layer_name":"Cadastro identificado como RIMAS","latest_evidence_date":"2023-11-29","latest_evidence_age_years":2.7488586350164614,"dated_domains_n":3,"time_series_status":"UNKNOWN_SERIE_TEMPORAL_NAO_ADQUIRIDA"}},{"type":"Feature","geometry":{"type":"Point","coordinates":[-52.06722199999996,-21.296666999999957]},"properties":{"well_id":"3500029179","municipality":"Brasilândia","hydro_unit":"Grupo Caiuá","domain":"Granular","layer_code":"T06","layer_name":"Cadastro identificado como RIMAS","latest_evidence_date":"2023-11-28","latest_evidence_age_years":2.7515965420234503,"dated_domains_n":3,"time_series_status":"UNKNOWN_SERIE_TEMPORAL_NAO_ADQUIRIDA"}},{"type":"Feature","geometry":{"type":"Point","coordinates":[-54.69111099999998,-19.40666699999997]},"properties":{"well_id":"3500028110","municipality":"São Gabriel do Oeste","hydro_unit":"Formação Serra Geral","domain":"Fraturada","layer_code":"T06","layer_name":"Cadastro identificado como RIMAS","latest_evidence_date":"2023-12-01","latest_evidence_age_years":2.7433828210024847,"dated_domains_n":3,"time_series_status":"UNKNOWN_SERIE_TEMPORAL_NAO_ADQUIRIDA"}},{"type":"Feature","geometry":{"type":"Point","coordinates":[-54.56499999999994,-23.66972199999998]},"properties":{"well_id":"3500026840","municipality":"Iguatemi","hydro_unit":"Grupo Caiuá","domain":"Granular","layer_code":"T06","layer_name":"Cadastro identificado como RIMAS","latest_evidence_date":"2022-11-25","latest_evidence_age_years":3.759146320595221,"dated_domains_n":3,"time_series_status":"UNKNOWN_SERIE_TEMPORAL_NAO_ADQUIRIDA"}},{"type":"Feature","geometry":{"type":"Point","coordinates":[-52.818888999999956,-21.300555999999972]},"properties":{"well_id":"3500029178","municipality":"Santa Rita do Pardo","hydro_unit":"Grupo Caiuá","domain":"Granular","layer_code":"T06","layer_name":"Cadastro identificado como RIMAS","latest_evidence_date":"2023-11-28","latest_evidence_age_years":2.7515965420234503,"dated_domains_n":3,"time_series_status":"UNKNOWN_SERIE_TEMPORAL_NAO_ADQUIRIDA"}},{"type":"Feature","geometry":{"type":"Point","coordinates":[-53.36888899999997,-22.07416699999993]},"properties":{"well_id":"3500034023","municipality":"Nova Andradina","hydro_unit":"Grupo Caiuá","domain":"Granular","layer_code":"T06","layer_name":"Cadastro identificado como RIMAS","latest_evidence_date":"2023-11-27","latest_evidence_age_years":2.7543344490304387,"dated_domains_n":3,"time_series_status":"UNKNOWN_SERIE_TEMPORAL_NAO_ADQUIRIDA"}},{"type":"Feature","geometry":{"type":"Point","coordinates":[-53.01424999999995,-18.892105999999956]},"properties":{"well_id":"3500068745","municipality":"Paraíso das Águas","hydro_unit":"Grupo Caiuá","domain":"Granular","layer_code":"T06","layer_name":"Cadastro identificado como RIMAS","latest_evidence_date":"2023-05-24","latest_evidence_age_years":3.2663230593372896,"dated_domains_n":1,"time_series_status":"UNKNOWN_SERIE_TEMPORAL_NAO_ADQUIRIDA"}},{"type":"Feature","geometry":{"type":"Point","coordinates":[-54.28233299999994,-22.915724999999952]},"properties":{"well_id":"3500068741","municipality":"Naviraí","hydro_unit":"Grupo Caiuá","domain":"Granular","layer_code":"T06","layer_name":"Cadastro identificado como RIMAS","latest_evidence_date":"2023-04-14","latest_evidence_age_years":3.37583933961683,"dated_domains_n":1,"time_series_status":"UNKNOWN_SERIE_TEMPORAL_NAO_ADQUIRIDA"}}]}