{"type":"FeatureCollection","name":"E09_transmissividade_informada","features":[{"type":"Feature","geometry":{"type":"Point","coordinates":[-54.67277799999994,-20.44222199999996]},"properties":{"well_id":"3500065046","municipality":"Campo Grande","aquifer":"Serra geral","transmissivity":56.3,"zero_requires_review":false,"unit":"SOURCE_UNIT_NOT_VERIFIED","test_date":"2016-04-14","interpretation_method":"UNKNOWN","source":"SGB_HIDRO_MS_2024_POCOS","evidence_code":"E09"}},{"type":"Feature","geometry":{"type":"Point","coordinates":[-53.84249999999997,-22.338888999999938]},"properties":{"well_id":"3500065060","municipality":"Ivinhema","aquifer":"Caiua","transmissivity":8.53,"zero_requires_review":false,"unit":"SOURCE_UNIT_NOT_VERIFIED","test_date":"2016-07-09","interpretation_method":"UNKNOWN","source":"SGB_HIDRO_MS_2024_POCOS","evidence_code":"E09"}},{"type":"Feature","geometry":{"type":"Point","coordinates":[-51.426943999999935,-20.361943999999937]},"properties":{"well_id":"3500065072","municipality":"Selvíria","aquifer":"Serra geral","transmissivity":64.78,"zero_requires_review":false,"unit":"SOURCE_UNIT_NOT_VERIFIED","test_date":"2016-02-02","interpretation_method":"UNKNOWN","source":"SGB_HIDRO_MS_2024_POCOS","evidence_code":"E09"}},{"type":"Feature","geometry":{"type":"Point","coordinates":[-53.29814399999998,-20.012241999999958]},"properties":{"well_id":"3500068739","municipality":"Ribas do Rio Pardo","aquifer":"Bauru","transmissivity":0.0,"zero_requires_review":true,"unit":"SOURCE_UNIT_NOT_VERIFIED","test_date":"2023-04-26","interpretation_method":"UNKNOWN","source":"SGB_HIDRO_MS_2024_POCOS","evidence_code":"E09"}},{"type":"Feature","geometry":{"type":"Point","coordinates":[-54.60583299999996,-20.45333299999993]},"properties":{"well_id":"3500065031","municipality":"Campo Grande","aquifer":"Serra geral","transmissivity":96.0,"zero_requires_review":false,"unit":"SOURCE_UNIT_NOT_VERIFIED","test_date":"2016-03-22","interpretation_method":"UNKNOWN","source":"SGB_HIDRO_MS_2024_POCOS","evidence_code":"E09"}},{"type":"Feature","geometry":{"type":"Point","coordinates":[-52.25166699999994,-21.72388899999993]},"properties":{"well_id":"3500065013","municipality":"Bataguassu","aquifer":"Bauru","transmissivity":10.3,"zero_requires_review":false,"unit":"SOURCE_UNIT_NOT_VERIFIED","test_date":"1986-07-07","interpretation_method":"UNKNOWN","source":"SGB_HIDRO_MS_2024_POCOS","evidence_code":"E09"}},{"type":"Feature","geometry":{"type":"Point","coordinates":[-52.41833299999996,-21.718610999999953]},"properties":{"well_id":"3500065016","municipality":"Bataguassu","aquifer":"Caiua","transmissivity":10.3,"zero_requires_review":false,"unit":"SOURCE_UNIT_NOT_VERIFIED","test_date":"1984-07-24","interpretation_method":"UNKNOWN","source":"SGB_HIDRO_MS_2024_POCOS","evidence_code":"E09"}},{"type":"Feature","geometry":{"type":"Point","coordinates":[-56.67361099999994,-20.556388999999967]},"properties":{"well_id":"3500065018","municipality":"Bodoquena","aquifer":"Cuiaba","transmissivity":2.0,"zero_requires_review":false,"unit":"SOURCE_UNIT_NOT_VERIFIED","test_date":"2008-04-11","interpretation_method":"UNKNOWN","source":"SGB_HIDRO_MS_2024_POCOS","evidence_code":"E09"}},{"type":"Feature","geometry":{"type":"Point","coordinates":[-54.69027799999998,-22.61861099999993]},"properties":{"well_id":"3500045606","municipality":"Caarapó","aquifer":"Guarani","transmissivity":0.003,"zero_requires_review":false,"unit":"SOURCE_UNIT_NOT_VERIFIED","test_date":"2009-04-27","interpretation_method":"UNKNOWN","source":"SGB_HIDRO_MS_2024_POCOS","evidence_code":"E09"}},{"type":"Feature","geometry":{"type":"Point","coordinates":[-54.86111099999994,-20.427777999999932]},"properties":{"well_id":"3500065077","municipality":"Terenos","aquifer":"Serra geral","transmissivity":60.24,"zero_requires_review":false,"unit":"SOURCE_UNIT_NOT_VERIFIED","test_date":"2016-09-26","interpretation_method":"UNKNOWN","source":"SGB_HIDRO_MS_2024_POCOS","evidence_code":"E09"}},{"type":"Feature","geometry":{"type":"Point","coordinates":[-54.041110999999944,-19.526110999999958]},"properties":{"well_id":"3500065022","municipality":"Camapuã","aquifer":"Guarani","transmissivity":10.3,"zero_requires_review":false,"unit":"SOURCE_UNIT_NOT_VERIFIED","test_date":"1988-09-16","interpretation_method":"UNKNOWN","source":"SGB_HIDRO_MS_2024_POCOS","evidence_code":"E09"}},{"type":"Feature","geometry":{"type":"Point","coordinates":[-55.96055599999994,-22.183888999999965]},"properties":{"well_id":"3500065007","municipality":"Antônio João","aquifer":"Serra geral","transmissivity":146.0,"zero_requires_review":false,"unit":"SOURCE_UNIT_NOT_VERIFIED","test_date":"2011-09-07","interpretation_method":"UNKNOWN","source":"SGB_HIDRO_MS_2024_POCOS","evidence_code":"E09"}},{"type":"Feature","geometry":{"type":"Point","coordinates":[-53.59694399999995,-22.383055999999954]},"properties":{"well_id":"3500065061","municipality":"Ivinhema","aquifer":"Caiua","transmissivity":24.7,"zero_requires_review":false,"unit":"SOURCE_UNIT_NOT_VERIFIED","test_date":"1981-06-18","interpretation_method":"UNKNOWN","source":"SGB_HIDRO_MS_2024_POCOS","evidence_code":"E09"}},{"type":"Feature","geometry":{"type":"Point","coordinates":[-53.850277999999946,-22.655555999999933]},"properties":{"well_id":"3500065065","municipality":"Novo Horizonte do Sul","aquifer":"Caiua","transmissivity":16.57,"zero_requires_review":false,"unit":"SOURCE_UNIT_NOT_VERIFIED","test_date":"1994-05-12","interpretation_method":"UNKNOWN","source":"SGB_HIDRO_MS_2024_POCOS","evidence_code":"E09"}},{"type":"Feature","geometry":{"type":"Point","coordinates":[-51.414999999999964,-20.359721999999977]},"properties":{"well_id":"3500065074","municipality":"Selvíria","aquifer":"Caiua","transmissivity":66.82,"zero_requires_review":false,"unit":"SOURCE_UNIT_NOT_VERIFIED","test_date":"2016-07-22","interpretation_method":"UNKNOWN","source":"SGB_HIDRO_MS_2024_POCOS","evidence_code":"E09"}},{"type":"Feature","geometry":{"type":"Point","coordinates":[-53.63777799999997,-18.676943999999935]},"properties":{"well_id":"3500065056","municipality":"Figueirão","aquifer":"Guarani","transmissivity":45.0,"zero_requires_review":false,"unit":"SOURCE_UNIT_NOT_VERIFIED","test_date":"2013-01-20","interpretation_method":"UNKNOWN","source":"SGB_HIDRO_MS_2024_POCOS","evidence_code":"E09"}},{"type":"Feature","geometry":{"type":"Point","coordinates":[-52.87583299999994,-20.43027799999993]},"properties":{"well_id":"3500064999","municipality":"Água Clara","aquifer":"Serra geral","transmissivity":17.0,"zero_requires_review":false,"unit":"SOURCE_UNIT_NOT_VERIFIED","test_date":"2008-12-07","interpretation_method":"UNKNOWN","source":"SGB_HIDRO_MS_2024_POCOS","evidence_code":"E09"}},{"type":"Feature","geometry":{"type":"Point","coordinates":[-52.87472199999996,-20.43999999999994]},"properties":{"well_id":"3500065000","municipality":"Água Clara","aquifer":"Caiua","transmissivity":13.0,"zero_requires_review":false,"unit":"SOURCE_UNIT_NOT_VERIFIED","test_date":"1996-05-13","interpretation_method":"UNKNOWN","source":"SGB_HIDRO_MS_2024_POCOS","evidence_code":"E09"}},{"type":"Feature","geometry":{"type":"Point","coordinates":[-52.87277799999998,-20.445832999999936]},"properties":{"well_id":"3500065003","municipality":"Água Clara","aquifer":"Bauru","transmissivity":23.0,"zero_requires_review":false,"unit":"SOURCE_UNIT_NOT_VERIFIED","test_date":"1987-06-02","interpretation_method":"UNKNOWN","source":"SGB_HIDRO_MS_2024_POCOS","evidence_code":"E09"}},{"type":"Feature","geometry":{"type":"Point","coordinates":[-56.45027799999997,-21.13999999999993]},"properties":{"well_id":"3500065019","municipality":"Bonito","aquifer":"Cuiaba","transmissivity":12.7,"zero_requires_review":false,"unit":"SOURCE_UNIT_NOT_VERIFIED","test_date":"2002-10-23","interpretation_method":"UNKNOWN","source":"SGB_HIDRO_MS_2024_POCOS","evidence_code":"E09"}},{"type":"Feature","geometry":{"type":"Point","coordinates":[-57.61944399999999,-19.037777999999946]},"properties":{"well_id":"3500065063","municipality":"Ladário","aquifer":"","transmissivity":73.8,"zero_requires_review":false,"unit":"SOURCE_UNIT_NOT_VERIFIED","test_date":"2016-05-05","interpretation_method":"UNKNOWN","source":"SGB_HIDRO_MS_2024_POCOS","evidence_code":"E09"}},{"type":"Feature","geometry":{"type":"Point","coordinates":[-54.54388899999998,-20.500832999999943]},"properties":{"well_id":"3500065035","municipality":"Campo Grande","aquifer":"Serra geral","transmissivity":12.22,"zero_requires_review":false,"unit":"SOURCE_UNIT_NOT_VERIFIED","test_date":"2016-06-15","interpretation_method":"UNKNOWN","source":"SGB_HIDRO_MS_2024_POCOS","evidence_code":"E09"}},{"type":"Feature","geometry":{"type":"Point","coordinates":[-54.61666699999995,-20.51499999999993]},"properties":{"well_id":"3500065042","municipality":"Campo Grande","aquifer":"Serra geral","transmissivity":2.4,"zero_requires_review":false,"unit":"SOURCE_UNIT_NOT_VERIFIED","test_date":"2016-07-11","interpretation_method":"UNKNOWN","source":"SGB_HIDRO_MS_2024_POCOS","evidence_code":"E09"}},{"type":"Feature","geometry":{"type":"Point","coordinates":[-54.16888899999998,-22.288332999999966]},"properties":{"well_id":"3500065052","municipality":"Deodápolis","aquifer":"Caiua","transmissivity":5.13,"zero_requires_review":false,"unit":"SOURCE_UNIT_NOT_VERIFIED","test_date":"2012-12-19","interpretation_method":"UNKNOWN","source":"SGB_HIDRO_MS_2024_POCOS","evidence_code":"E09"}},{"type":"Feature","geometry":{"type":"Point","coordinates":[-54.44916699999993,-22.53305599999993]},"properties":{"well_id":"3500065084","municipality":"Vicentina","aquifer":"Serra geral","transmissivity":23.4,"zero_requires_review":false,"unit":"SOURCE_UNIT_NOT_VERIFIED","test_date":"1994-09-15","interpretation_method":"UNKNOWN","source":"SGB_HIDRO_MS_2024_POCOS","evidence_code":"E09"}},{"type":"Feature","geometry":{"type":"Point","coordinates":[-55.943055999999956,-22.195555999999954]},"properties":{"well_id":"3500065005","municipality":"Antônio João","aquifer":"Serra geral","transmissivity":34.0,"zero_requires_review":false,"unit":"SOURCE_UNIT_NOT_VERIFIED","test_date":"1979-09-29","interpretation_method":"UNKNOWN","source":"SGB_HIDRO_MS_2024_POCOS","evidence_code":"E09"}},{"type":"Feature","geometry":{"type":"Point","coordinates":[-54.75305599999996,-20.48194399999994]},"properties":{"well_id":"3500065048","municipality":"Campo Grande","aquifer":"Serra geral","transmissivity":127.0,"zero_requires_review":false,"unit":"SOURCE_UNIT_NOT_VERIFIED","test_date":"2016-07-12","interpretation_method":"UNKNOWN","source":"SGB_HIDRO_MS_2024_POCOS","evidence_code":"E09"}},{"type":"Feature","geometry":{"type":"Point","coordinates":[-54.67027799999994,-20.550277999999935]},"properties":{"well_id":"3500065034","municipality":"Campo Grande","aquifer":"Serra geral","transmissivity":78.9,"zero_requires_review":false,"unit":"SOURCE_UNIT_NOT_VERIFIED","test_date":"2016-04-29","interpretation_method":"UNKNOWN","source":"SGB_HIDRO_MS_2024_POCOS","evidence_code":"E09"}},{"type":"Feature","geometry":{"type":"Point","coordinates":[-54.75361099999998,-20.48055599999998]},"properties":{"well_id":"3500065051","municipality":"Campo Grande","aquifer":"Serra geral","transmissivity":76.0,"zero_requires_review":false,"unit":"SOURCE_UNIT_NOT_VERIFIED","test_date":"2016-06-28","interpretation_method":"UNKNOWN","source":"SGB_HIDRO_MS_2024_POCOS","evidence_code":"E09"}},{"type":"Feature","geometry":{"type":"Point","coordinates":[-55.94805599999995,-22.198332999999934]},"properties":{"well_id":"3500065004","municipality":"Antônio João","aquifer":"Serra geral","transmissivity":4.8,"zero_requires_review":false,"unit":"SOURCE_UNIT_NOT_VERIFIED","test_date":"1979-08-03","interpretation_method":"UNKNOWN","source":"SGB_HIDRO_MS_2024_POCOS","evidence_code":"E09"}},{"type":"Feature","geometry":{"type":"Point","coordinates":[-51.10999999999996,-20.065277999999978]},"properties":{"well_id":"3500065008","municipality":"Aparecida do Taboado","aquifer":"Caiua","transmissivity":5.0,"zero_requires_review":false,"unit":"SOURCE_UNIT_NOT_VERIFIED","test_date":"2005-05-21","interpretation_method":"UNKNOWN","source":"SGB_HIDRO_MS_2024_POCOS","evidence_code":"E09"}},{"type":"Feature","geometry":{"type":"Point","coordinates":[-52.264166999999986,-21.72361099999995]},"properties":{"well_id":"3500065011","municipality":"Bataguassu","aquifer":"Bauru","transmissivity":10.3,"zero_requires_review":false,"unit":"SOURCE_UNIT_NOT_VERIFIED","test_date":"1987-07-23","interpretation_method":"UNKNOWN","source":"SGB_HIDRO_MS_2024_POCOS","evidence_code":"E09"}},{"type":"Feature","geometry":{"type":"Point","coordinates":[-52.41638899999998,-21.717777999999953]},"properties":{"well_id":"3500065012","municipality":"Bataguassu","aquifer":"Bauru","transmissivity":10.3,"zero_requires_review":false,"unit":"SOURCE_UNIT_NOT_VERIFIED","test_date":"2009-05-09","interpretation_method":"UNKNOWN","source":"SGB_HIDRO_MS_2024_POCOS","evidence_code":"E09"}},{"type":"Feature","geometry":{"type":"Point","coordinates":[-54.75055599999996,-20.484166999999957]},"properties":{"well_id":"3500065043","municipality":"Campo Grande","aquifer":"Guarani","transmissivity":457.54,"zero_requires_review":false,"unit":"SOURCE_UNIT_NOT_VERIFIED","test_date":"2015-10-24","interpretation_method":"UNKNOWN","source":"SGB_HIDRO_MS_2024_POCOS","evidence_code":"E09"}},{"type":"Feature","geometry":{"type":"Point","coordinates":[-54.486666999999954,-22.141388999999947]},"properties":{"well_id":"3500065053","municipality":"Dourados","aquifer":"Serra geral","transmissivity":1.0,"zero_requires_review":false,"unit":"SOURCE_UNIT_NOT_VERIFIED","test_date":"2009-12-02","interpretation_method":"UNKNOWN","source":"SGB_HIDRO_MS_2024_POCOS","evidence_code":"E09"}},{"type":"Feature","geometry":{"type":"Point","coordinates":[-55.73694399999994,-22.462499999999977]},"properties":{"well_id":"3500065066","municipality":"Ponta Porã","aquifer":"Serra geral","transmissivity":9.432,"zero_requires_review":false,"unit":"SOURCE_UNIT_NOT_VERIFIED","test_date":"2016-04-24","interpretation_method":"UNKNOWN","source":"SGB_HIDRO_MS_2024_POCOS","evidence_code":"E09"}},{"type":"Feature","geometry":{"type":"Point","coordinates":[-55.736388999999974,-22.463332999999977]},"properties":{"well_id":"3500065067","municipality":"Ponta Porã","aquifer":"Serra geral","transmissivity":15.79,"zero_requires_review":false,"unit":"SOURCE_UNIT_NOT_VERIFIED","test_date":"2016-04-23","interpretation_method":"UNKNOWN","source":"SGB_HIDRO_MS_2024_POCOS","evidence_code":"E09"}},{"type":"Feature","geometry":{"type":"Point","coordinates":[-53.358055999999976,-22.486388999999974]},"properties":{"well_id":"3500065075","municipality":"Taquarussu","aquifer":"Caiua","transmissivity":40.72,"zero_requires_review":false,"unit":"SOURCE_UNIT_NOT_VERIFIED","test_date":"1981-05-26","interpretation_method":"UNKNOWN","source":"SGB_HIDRO_MS_2024_POCOS","evidence_code":"E09"}},{"type":"Feature","geometry":{"type":"Point","coordinates":[-51.70666699999998,-20.787777999999946]},"properties":{"well_id":"3500065078","municipality":"Três Lagoas","aquifer":"Caiua","transmissivity":8.39,"zero_requires_review":false,"unit":"SOURCE_UNIT_NOT_VERIFIED","test_date":"1991-07-19","interpretation_method":"UNKNOWN","source":"SGB_HIDRO_MS_2024_POCOS","evidence_code":"E09"}},{"type":"Feature","geometry":{"type":"Point","coordinates":[-51.728332999999964,-20.789721999999927]},"properties":{"well_id":"3500065081","municipality":"Três Lagoas","aquifer":"Caiua","transmissivity":45.0,"zero_requires_review":false,"unit":"SOURCE_UNIT_NOT_VERIFIED","test_date":"2013-01-20","interpretation_method":"UNKNOWN","source":"SGB_HIDRO_MS_2024_POCOS","evidence_code":"E09"}},{"type":"Feature","geometry":{"type":"Point","coordinates":[-53.635832999999934,-18.685277999999983]},"properties":{"well_id":"3500065058","municipality":"Figueirão","aquifer":"Guarani","transmissivity":45.0,"zero_requires_review":false,"unit":"SOURCE_UNIT_NOT_VERIFIED","test_date":"2009-10-14","interpretation_method":"UNKNOWN","source":"SGB_HIDRO_MS_2024_POCOS","evidence_code":"E09"}},{"type":"Feature","geometry":{"type":"Point","coordinates":[-55.51249999999993,-21.73277799999994]},"properties":{"well_id":"3500065064","municipality":"Maracaju","aquifer":"Guarani","transmissivity":30.5,"zero_requires_review":false,"unit":"SOURCE_UNIT_NOT_VERIFIED","test_date":"2012-02-25","interpretation_method":"UNKNOWN","source":"SGB_HIDRO_MS_2024_POCOS","evidence_code":"E09"}},{"type":"Feature","geometry":{"type":"Point","coordinates":[-54.04777799999994,-19.51277799999997]},"properties":{"well_id":"3500065025","municipality":"Camapuã","aquifer":"Guarani","transmissivity":10.3,"zero_requires_review":false,"unit":"SOURCE_UNIT_NOT_VERIFIED","test_date":"1991-02-14","interpretation_method":"UNKNOWN","source":"SGB_HIDRO_MS_2024_POCOS","evidence_code":"E09"}},{"type":"Feature","geometry":{"type":"Point","coordinates":[-56.67194399999994,-20.55416699999995]},"properties":{"well_id":"3500065017","municipality":"Bodoquena","aquifer":"Cuiaba","transmissivity":0.76,"zero_requires_review":false,"unit":"SOURCE_UNIT_NOT_VERIFIED","test_date":"1981-04-07","interpretation_method":"UNKNOWN","source":"SGB_HIDRO_MS_2024_POCOS","evidence_code":"E09"}},{"type":"Feature","geometry":{"type":"Point","coordinates":[-54.40833299999997,-23.892777999999964]},"properties":{"well_id":"3500065062","municipality":"Japorã","aquifer":"Caiua","transmissivity":101.45,"zero_requires_review":false,"unit":"SOURCE_UNIT_NOT_VERIFIED","test_date":"2016-05-02","interpretation_method":"UNKNOWN","source":"SGB_HIDRO_MS_2024_POCOS","evidence_code":"E09"}},{"type":"Feature","geometry":{"type":"Point","coordinates":[-54.85722199999998,-18.925832999999955]},"properties":{"well_id":"3500065071","municipality":"Rio Verde de Mato Grosso","aquifer":"Furnas","transmissivity":113.6,"zero_requires_review":false,"unit":"SOURCE_UNIT_NOT_VERIFIED","test_date":"2009-03-17","interpretation_method":"UNKNOWN","source":"SGB_HIDRO_MS_2024_POCOS","evidence_code":"E09"}},{"type":"Feature","geometry":{"type":"Point","coordinates":[-53.632221999999956,-18.678610999999933]},"properties":{"well_id":"3500065057","municipality":"Figueirão","aquifer":"Guarani","transmissivity":30.5,"zero_requires_review":false,"unit":"SOURCE_UNIT_NOT_VERIFIED","test_date":"2012-12-13","interpretation_method":"UNKNOWN","source":"SGB_HIDRO_MS_2024_POCOS","evidence_code":"E09"}},{"type":"Feature","geometry":{"type":"Point","coordinates":[-54.03972199999998,-19.558055999999965]},"properties":{"well_id":"3500065023","municipality":"Camapuã","aquifer":"Guarani","transmissivity":10.3,"zero_requires_review":false,"unit":"SOURCE_UNIT_NOT_VERIFIED","test_date":"1994-10-01","interpretation_method":"UNKNOWN","source":"SGB_HIDRO_MS_2024_POCOS","evidence_code":"E09"}},{"type":"Feature","geometry":{"type":"Point","coordinates":[-52.87472199999996,-20.446943999999974]},"properties":{"well_id":"3500065001","municipality":"Água Clara","aquifer":"Bauru","transmissivity":45.0,"zero_requires_review":false,"unit":"SOURCE_UNIT_NOT_VERIFIED","test_date":"2016-12-23","interpretation_method":"UNKNOWN","source":"SGB_HIDRO_MS_2024_POCOS","evidence_code":"E09"}},{"type":"Feature","geometry":{"type":"Point","coordinates":[-55.95666699999998,-22.191943999999978]},"properties":{"well_id":"3500065006","municipality":"Antônio João","aquifer":"Serra geral","transmissivity":64.0,"zero_requires_review":false,"unit":"SOURCE_UNIT_NOT_VERIFIED","test_date":"1979-10-03","interpretation_method":"UNKNOWN","source":"SGB_HIDRO_MS_2024_POCOS","evidence_code":"E09"}},{"type":"Feature","geometry":{"type":"Point","coordinates":[-52.40888899999993,-21.709443999999962]},"properties":{"well_id":"3500065014","municipality":"Bataguassu","aquifer":"Caiua","transmissivity":10.3,"zero_requires_review":false,"unit":"SOURCE_UNIT_NOT_VERIFIED","test_date":"1984-07-17","interpretation_method":"UNKNOWN","source":"SGB_HIDRO_MS_2024_POCOS","evidence_code":"E09"}}],"pih_metadata":{"code":"E09","name":"Transmissividade informada","scientific_question":"Onde existe número de transmissividade no snapshot histórico enriquecido","source_dataset":"SGB_HIDRO_MS_2024_POCOS","inclusion_rule":"transmissivity_sgb2024 numérica","limitations":"Unidade e método não estão documentados para a maioria. A camada mapeia disponibilidade, não qualidade do parâmetro","feature_count":51,"grid_readiness":"READY_FOR_GRID_COUNTS","aggregation_rule_provisional":"COUNT_DISTINCT(well_id); zero_count separado; magnitude não agregada até congelar unidade","cutoff_date":"2026-08-29"}}