{"type": "FeatureCollection", "features": [{"type": "Feature", "properties": {"Itens": 1.0, "Categoria": 1.0, "C\u00f3digo": "1DO-0002_MS", "Localidade": "Dourados-2", "Lat_G": -22.0, "Lat_M": 10.0, "Lat_S": 24.56, "Lon_G": -54.0, "Lon_M": 57.0, "Lon_S": 56.95, "Datum": "Corrego Alegre", "Latitude": -22.1734888889, "Longitude": -54.9658194444, "Cenozoico": 5.0, "Cachoeirin": 10.0, "Bauru_Indi": 0.0, "Serra_gera": 343.0, "Intertrap": 0.0, "Botucatu": 394.0, "Piramboia": 74.0, "Rio_do_Ras": 126.0, "Teresina": 556.0, "Serra_Alta": 56.0, "Irati": 69.0, "Dique": 119.0, "Dourados": 315.0, "Palermo": 0.0, "Rio_Bonito": 0.0, "Soleira_To": 433.0, "Itarare_In": 0.0, "Taciba_MB_": 0.0, "Aquidauana": 0.0, "Campo_Mour": 0.0, "Lagoa_Azul": 0.0, "MB__Cuiab": 0.0, "Ponta_Gros": 0.0, "Furnas": 0.0, "Vila_Maria": 0.0, "Gar\u00e7as": 0.0, "Basalto_Tr": 0.0, "Cota_do_Em": 0.0}, "geometry": {"type": "Point", "coordinates": [-54.965819443999976, -22.17348888899994]}}, {"type": "Feature", "properties": {"Itens": 2.0, "Categoria": 1.0, "C\u00f3digo": "1DO-0003_MS", "Localidade": "Dourados-3", "Lat_G": -22.0, "Lat_M": 19.0, "Lat_S": 54.08, "Lon_G": -54.0, "Lon_M": 50.0, "Lon_S": 37.72, "Datum": "Corrego Alegre", "Latitude": -22.3316888889, "Longitude": -54.8438111111, "Cenozoico": 5.0, "Cachoeirin": 11.0, "Bauru_Indi": 0.0, "Serra_gera": 374.0, "Intertrap": 56.0, "Botucatu": 351.0, "Piramboia": 100.0, "Rio_do_Ras": 200.0, "Teresina": 566.0, "Serra_Alta": 63.0, "Irati": 47.0, "Dique": 0.0, "Dourados": 192.0, "Palermo": 0.0, "Rio_Bonito": 0.0, "Soleira_To": 260.0, "Itarare_In": 0.0, "Taciba_MB_": 0.0, "Aquidauana": 0.0, "Campo_Mour": 0.0, "Lagoa_Azul": 0.0, "MB__Cuiab": 0.0, "Ponta_Gros": 0.0, "Furnas": 0.0, "Vila_Maria": 0.0, "Gar\u00e7as": 0.0, "Basalto_Tr": 0.0, "Cota_do_Em": 0.0}, "geometry": {"type": "Point", "coordinates": [-54.84381111099998, -22.331688888999963]}}, {"type": "Feature", "properties": {"Itens": 3.0, "Categoria": 1.0, "C\u00f3digo": "1DO-0004_MS", "Localidade": "Dourados-4", "Lat_G": -22.0, "Lat_M": 15.0, "Lat_S": 10.15, "Lon_G": -54.0, "Lon_M": 49.0, "Lon_S": 28.16, "Datum": "Corrego Alegre", "Latitude": -22.2528194444, "Longitude": -54.8244888889, "Cenozoico": 4.0, "Cachoeirin": 0.0, "Bauru_Indi": 0.0, "Serra_gera": 264.0, "Intertrap": 79.0, "Botucatu": 399.0, "Piramboia": 126.0, "Rio_do_Ras": 200.0, "Teresina": 572.0, "Serra_Alta": 79.0, "Irati": 51.0, "Dique": 0.0, "Dourados": 132.0, "Palermo": 0.0, "Rio_Bonito": 0.0, "Soleira_To": 86.0, "Itarare_In": 0.0, "Taciba_MB_": 0.0, "Aquidauana": 0.0, "Campo_Mour": 0.0, "Lagoa_Azul": 0.0, "MB__Cuiab": 0.0, "Ponta_Gros": 0.0, "Furnas": 0.0, "Vila_Maria": 0.0, "Gar\u00e7as": 0.0, "Basalto_Tr": 0.0, "Cota_do_Em": 0.0}, "geometry": {"type": "Point", "coordinates": [-54.82448888899995, -22.252819443999954]}}, {"type": "Feature", "properties": {"Itens": 4.0, "Categoria": 1.0, "C\u00f3digo": "2AM-0001_MS", "Localidade": "Amambai-1", "Lat_G": -23.0, "Lat_M": 6.0, "Lat_S": 35.64, "Lon_G": -55.0, "Lon_M": 14.0, "Lon_S": 12.01, "Datum": "Corrego Alegre", "Latitude": -23.1099, "Longitude": -55.2366694444, "Cenozoico": 30.0, "Cachoeirin": 0.0, "Bauru_Indi": 0.0, "Serra_gera": 23.0, "Intertrap": 0.0, "Botucatu": 358.0, "Piramboia": 80.0, "Rio_do_Ras": 191.0, "Teresina": 418.0, "Serra_Alta": 71.0, "Irati": 67.0, "Dique": 38.0, "Dourados": 395.0, "Palermo": 0.0, "Rio_Bonito": 0.0, "Soleira_To": 608.0, "Itarare_In": 636.0, "Taciba_MB_": 0.0, "Aquidauana": 0.0, "Campo_Mour": 0.0, "Lagoa_Azul": 165.0, "MB__Cuiab": 274.0, "Ponta_Gros": 14.0, "Furnas": 0.0, "Vila_Maria": 0.0, "Gar\u00e7as": 0.0, "Basalto_Tr": 0.0, "Cota_do_Em": 0.0}, "geometry": {"type": "Point", "coordinates": [-55.23666944399997, -23.109899999999982]}}, {"type": "Feature", "properties": {"Itens": 5.0, "Categoria": 1.0, "C\u00f3digo": "2CG-0001_MS", "Localidade": "Campo-Grande-1", "Lat_G": -20.0, "Lat_M": 29.0, "Lat_S": 8.99, "Lon_G": -54.0, "Lon_M": 43.0, "Lon_S": 8.98, "Datum": "Corrego Alegre", "Latitude": -20.4858305556, "Longitude": -54.7191611111, "Cenozoico": 4.0, "Cachoeirin": 0.0, "Bauru_Indi": 0.0, "Serra_gera": 145.0, "Intertrap": 0.0, "Botucatu": 271.0, "Piramboia": 109.0, "Rio_do_Ras": 0.0, "Teresina": 269.0, "Serra_Alta": 49.0, "Irati": 71.0, "Dique": 0.0, "Dourados": 100.0, "Palermo": 0.0, "Rio_Bonito": 0.0, "Soleira_To": 0.0, "Itarare_In": 0.0, "Taciba_MB_": 0.0, "Aquidauana": 154.0, "Campo_Mour": 256.0, "Lagoa_Azul": 290.0, "MB__Cuiab": 319.0, "Ponta_Gros": 115.0, "Furnas": 248.0, "Vila_Maria": 168.0, "Gar\u00e7as": 0.0, "Basalto_Tr": 0.0, "Cota_do_Em": 0.0}, "geometry": {"type": "Point", "coordinates": [-54.71916111099995, -20.48583055599994]}}, {"type": "Feature", "properties": {"Itens": 6.0, "Categoria": 1.0, "C\u00f3digo": "2DO-0001_MS", "Localidade": "Dourados-1", "Lat_G": -22.0, "Lat_M": 16.0, "Lat_S": 3.14, "Lon_G": -54.0, "Lon_M": 48.0, "Lon_S": 45.86, "Datum": "Corrego Alegre", "Latitude": -22.2675388889, "Longitude": -54.8127388889, "Cenozoico": 5.0, "Cachoeirin": 0.0, "Bauru_Indi": 0.0, "Serra_gera": 359.0, "Intertrap": 0.0, "Botucatu": 416.0, "Piramboia": 76.0, "Rio_do_Ras": 230.0, "Teresina": 581.0, "Serra_Alta": 76.0, "Irati": 55.0, "Dique": 58.0, "Dourados": 413.0, "Palermo": 0.0, "Rio_Bonito": 0.0, "Soleira_To": 467.0, "Itarare_In": 0.0, "Taciba_MB_": 154.0, "Aquidauana": 0.0, "Campo_Mour": 587.0, "Lagoa_Azul": 191.0, "MB__Cuiab": 188.0, "Ponta_Gros": 22.0, "Furnas": 254.0, "Vila_Maria": 0.0, "Gar\u00e7as": 0.0, "Basalto_Tr": 0.0, "Cota_do_Em": 4132.0}, "geometry": {"type": "Point", "coordinates": [-54.812738888999945, -22.26753888899998]}}, {"type": "Feature", "properties": {"Itens": 7.0, "Categoria": 1.0, "C\u00f3digo": "2RA-0001_MS", "Localidade": "Rio Apore-1", "Lat_G": -18.0, "Lat_M": 50.0, "Lat_S": 9.122, "Lon_G": -52.0, "Lon_M": 21.0, "Lon_S": 37.158, "Datum": "Corrego Alegre", "Latitude": -18.8358672222, "Longitude": -52.3603216667, "Cenozoico": 150.0, "Cachoeirin": 0.0, "Bauru_Indi": 0.0, "Serra_gera": 0.0, "Intertrap": 0.0, "Botucatu": 424.0, "Piramboia": 0.0, "Rio_do_Ras": 0.0, "Teresina": 229.0, "Serra_Alta": 105.0, "Irati": 25.0, "Dique": 0.0, "Dourados": 51.0, "Palermo": 0.0, "Rio_Bonito": 0.0, "Soleira_To": 781.0, "Itarare_In": 0.0, "Taciba_MB_": 0.0, "Aquidauana": 963.0, "Campo_Mour": 0.0, "Lagoa_Azul": 0.0, "MB__Cuiab": 0.0, "Ponta_Gros": 389.0, "Furnas": 251.0, "Vila_Maria": 0.0, "Gar\u00e7as": 69.0, "Basalto_Tr": 0.0, "Cota_do_Em": 3437.0}, "geometry": {"type": "Point", "coordinates": [-52.36032166699994, -18.835867221999933]}}, {"type": "Feature", "properties": {"Itens": 8.0, "Categoria": 1.0, "C\u00f3digo": "2RP-0001_MS", "Localidade": "Ribas Rio Pardo-1", "Lat_G": -20.0, "Lat_M": 25.0, "Lat_S": 17.15, "Lon_G": -53.0, "Lon_M": 52.0, "Lon_S": 22.08, "Datum": "Corrego Alegre", "Latitude": -20.4214305556, "Longitude": -53.8728, "Cenozoico": 6.0, "Cachoeirin": 0.0, "Bauru_Indi": 0.0, "Serra_gera": 177.0, "Intertrap": 17.0, "Botucatu": 471.0, "Piramboia": 155.0, "Rio_do_Ras": 0.0, "Teresina": 853.0, "Serra_Alta": 93.0, "Irati": 88.0, "Dique": 0.0, "Dourados": 61.0, "Palermo": 0.0, "Rio_Bonito": 0.0, "Soleira_To": 544.0, "Itarare_In": 0.0, "Taciba_MB_": 0.0, "Aquidauana": 955.0, "Campo_Mour": 0.0, "Lagoa_Azul": 0.0, "MB__Cuiab": 0.0, "Ponta_Gros": 53.0, "Furnas": 317.0, "Vila_Maria": 0.0, "Gar\u00e7as": 0.0, "Basalto_Tr": 0.0, "Cota_do_Em": 0.0}, "geometry": {"type": "Point", "coordinates": [-53.872799999999984, -20.42143055599996]}}, {"type": "Feature", "properties": {"Itens": 9.0, "Categoria": 1.0, "C\u00f3digo": "2SD-0001_MS", "Localidade": "S\u00e3o Domingos-1", "Lat_G": -21.0, "Lat_M": 49.0, "Lat_S": 40.94, "Lon_G": -53.0, "Lon_M": 49.0, "Lon_S": 59.27, "Datum": "Corrego Alegre", "Latitude": -21.8280388889, "Longitude": -53.8331305556, "Cenozoico": 33.0, "Cachoeirin": 0.0, "Bauru_Indi": 0.0, "Serra_gera": 739.0, "Intertrap": 130.0, "Botucatu": 425.0, "Piramboia": 94.0, "Rio_do_Ras": 209.0, "Teresina": 526.0, "Serra_Alta": 32.0, "Irati": 162.0, "Dique": 78.0, "Dourados": 176.0, "Palermo": 0.0, "Rio_Bonito": 0.0, "Soleira_To": 399.0, "Itarare_In": 0.0, "Taciba_MB_": 0.0, "Aquidauana": 0.0, "Campo_Mour": 0.0, "Lagoa_Azul": 0.0, "MB__Cuiab": 0.0, "Ponta_Gros": 0.0, "Furnas": 0.0, "Vila_Maria": 0.0, "Gar\u00e7as": 0.0, "Basalto_Tr": 0.0, "Cota_do_Em": 0.0}, "geometry": {"type": "Point", "coordinates": [-53.83313055599996, -21.82803888899997]}}, {"type": "Feature", "properties": {"Itens": 10.0, "Categoria": 1.0, "C\u00f3digo": "2TL-0001_MS", "Localidade": "Tres Lagoas-1", "Lat_G": -20.0, "Lat_M": 52.0, "Lat_S": 45.01, "Lon_G": -51.0, "Lon_M": 45.0, "Lon_S": 0.0, "Datum": "Corrego Alegre", "Latitude": -20.8791694444, "Longitude": -51.75, "Cenozoico": 55.0, "Cachoeirin": 0.0, "Bauru_Indi": 65.0, "Serra_gera": 704.0, "Intertrap": 0.0, "Botucatu": 240.0, "Piramboia": 174.0, "Rio_do_Ras": 155.0, "Teresina": 585.0, "Serra_Alta": 85.0, "Irati": 35.0, "Dique": 0.0, "Dourados": 0.0, "Palermo": 92.0, "Rio_Bonito": 25.0, "Soleira_To": 644.0, "Itarare_In": 0.0, "Taciba_MB_": 175.0, "Aquidauana": 0.0, "Campo_Mour": 647.0, "Lagoa_Azul": 147.0, "MB__Cuiab": 96.0, "Ponta_Gros": 223.0, "Furnas": 117.0, "Vila_Maria": 0.0, "Gar\u00e7as": 297.0, "Basalto_Tr": 21.0, "Cota_do_Em": 0.0}, "geometry": {"type": "Point", "coordinates": [-51.74999999999994, -20.879169443999956]}}]}