{"type": "FeatureCollection", "features": [{"type": "Feature", "properties": {"OBJECTID": 1, "SIAGAS": 3500045606.0, "UF": "MS", "MUNICIPIO": "Caarap\u00f3", "LAT": -22.618611, "LOG": -54.690278, "AQUIF_CAP": "Guarani", "SIGLA": "J3K1bt", "Q_m3_h": 97.0, "q_m3_h_m": 1.253, "NE_m": 127.7, "ND_m": 205.14, "PROF_m": 722.0, "T_m2_s": "0,003", "K_m_s": "0,0000037", "CE_\u00b5S_cm": null, "Rotulo": "<und>   97 - 1,253 - 127,7 - 205,1   </und>\r\n722 - 3,0 x 10<sup>-3</sup>- 3,7 x 10<sup>-5</sup> -", "HE_REPR": "0 a 60 (60) - (4Gr) K2c; 60 a 563 (503) - (4Fr) K1\u03b2sg; 563 a 722 (159) - (1Gr) J3k1bt"}, "geometry": {"type": "Point", "coordinates": [-54.69027799999998, -22.61861099999993]}}, {"type": "Feature", "properties": {"OBJECTID": 2, "SIAGAS": 3500065062.0, "UF": "MS", "MUNICIPIO": "Japor\u00e3", "LAT": -23.892778, "LOG": -54.408333, "AQUIF_CAP": "Caiu\u00e1", "SIGLA": "K2c", "Q_m3_h": 8.0, "q_m3_h_m": 0.625, "NE_m": 25.15, "ND_m": 37.95, "PROF_m": 126.0, "T_m2_s": "0,0012\r\n", "K_m_s": "0,000012", "CE_\u00b5S_cm": "200", "Rotulo": "<und>       126 - 0,625 - 25,1 - 37,9       </und>\r\n126 - 1,2 x 10<sup>-3</sup> - 1,2 x 10<sup>-5</sup> - 200", "HE_REPR": "0 a 126 (126) - (5Gr) K2c"}, "geometry": {"type": "Point", "coordinates": [-54.40833299999997, -23.892777999999964]}}, {"type": "Feature", "properties": {"OBJECTID": 3, "SIAGAS": 3500065064.0, "UF": "MS", "MUNICIPIO": "Maracaju", "LAT": -21.732778, "LOG": -55.5125, "AQUIF_CAP": "Guarani", "SIGLA": "J3K1bt", "Q_m3_h": 79.2, "q_m3_h_m": 6.798, "NE_m": 100.08, "ND_m": 111.73, "PROF_m": 222.0, "T_m2_s": "0,00035", "K_m_s": "0,000088", "CE_\u00b5S_cm": null, "Rotulo": "<und>  79,2 - 6,798 - 100,8 - 111,7  </und>\r\n222 - 3,5 x 10<sup>-4</sup> - 8,8 x 10<sup>-5</sup> -", "HE_REPR": "0 a 218 (218) - (4Fr) K1\u03b2sg; 218 a 222 (4) - (1Gr) J3K1bt"}, "geometry": {"type": "Point", "coordinates": [-55.51249999999993, -21.73277799999994]}}, {"type": "Feature", "properties": {"OBJECTID": 4, "SIAGAS": 3500022663.0, "UF": "MS", "MUNICIPIO": "Dourados", "LAT": -22.267539, "LOG": -54.812739, "AQUIF_CAP": "Guarani", "SIGLA": "J3K1bt-P3T1p", "Q_m3_h": 72.0, "q_m3_h_m": 6.545, "NE_m": 41.0, "ND_m": 52.0, "PROF_m": 4132.0, "T_m2_s": null, "K_m_s": null, "CE_\u00b5S_cm": null, "Rotulo": "<und>72 - 6,545 - 41 - 52</und>\r\n4132 -   -   -", "HE_REPR": "0 a 364 (364) - (4Fr) K1\u03b2sg; 364 a 780 (416) - (1Gr) J3K1bt; 780 a 856 (76) - (3Gr) P3T1p; 856 a 2201 (1355) - (6Gr) P2T1pd; 2201 a 2736 (535) - (5Fr) K1\u03b2sg; 2736-3856 (1120) - (5Gr) C2P1i; 3856 a 3878 (22) - (6Gr) Dpg; 3878 a 4132 (254) - (1Gr) D1f; 4"}, "geometry": {"type": "Point", "coordinates": [-54.813184869999986, -22.26772735199995]}}, {"type": "Feature", "properties": {"OBJECTID": 5, "SIAGAS": 0.0, "UF": "MS", "MUNICIPIO": "Rio Apore", "LAT": -18.836119608, "LOG": -52.360882405, "AQUIF_CAP": "<Null>", "SIGLA": "<Null>", "Q_m3_h": 0.0, "q_m3_h_m": 0.0, "NE_m": 0.0, "ND_m": 0.0, "PROF_m": 3437.0, "T_m2_s": null, "K_m_s": null, "CE_\u00b5S_cm": null, "Rotulo": "<und>    -   -   -   -   \r\n</und> 3437 -   -   -", "HE_REPR": "0 a 150 (15) - (4Gr) K2c; 150 a 574 (424) - 574 a 933 (359) - (6Gr) P2T1pd; 933 a 984 (51) - (5Gr) C2P1a; 984 a 1765 (781) - (5Fr) K1\u03b2sg; 1765 a 2728 (963) - (5Gr) C2P1a; 2728 a 3117 (389) - (6Gr) Dpg; 3117 a 3368 (251) - (1Gr) D1f; 3369 a 3437 (69) - ("}, "geometry": {"type": "Point", "coordinates": [-52.360882404999984, -18.836119607999933]}}, {"type": "Feature", "properties": {"OBJECTID": 6, "SIAGAS": 3500023099.0, "UF": "MS", "MUNICIPIO": "Ribas do Rio Pardo", "LAT": -20.421430556, "LOG": -53.8728, "AQUIF_CAP": null, "SIGLA": null, "Q_m3_h": 0.0, "q_m3_h_m": 0.0, "NE_m": 0.0, "ND_m": 0.0, "PROF_m": 3790.0, "T_m2_s": null, "K_m_s": null, "CE_\u00b5S_cm": null, "Rotulo": "<und>    -   -   -   -    </und>\r\n3790 -   -   -", "HE_REPR": "0 a 183 (183) - (4Fr) K1\u03b2sg; 183 a 200 (17) - (4Fr-Gr) K1bt_sg_i; 200 a 671 (471) - (1Gr) J3K1bt; 671 a 826 (155) - (3Gr) P3T1p; 826 a 1921 (1095) - (6Gr) P2T1pd; 1095 a 2465 (544) - (5Fr) K1\u03b2sg; 2465 a 3420 (955) - (5Gr) C2P1a; 3420 a 3473 (53) - (6Gr"}, "geometry": {"type": "Point", "coordinates": [-53.872799999999984, -20.42143055599996]}}, {"type": "Feature", "properties": {"OBJECTID": 7, "SIAGAS": 3500053086.0, "UF": "MS", "MUNICIPIO": "Miranda", "LAT": -19.869167, "LOG": -56.521111, "AQUIF_CAP": "Pantanal", "SIGLA": "Q1p", "Q_m3_h": 10.0, "q_m3_h_m": 1.667, "NE_m": 4.0, "ND_m": 10.0, "PROF_m": 40.0, "T_m2_s": null, "K_m_s": null, "CE_\u00b5S_cm": null, "Rotulo": "<und>10 - 1,667 - 4 - 10</und>\r\n40 -   -   -", "HE_REPR": "0 a 40 (40) - (5Gr) Q1p"}, "geometry": {"type": "Point", "coordinates": [-56.52111099999996, -19.869166999999948]}}, {"type": "Feature", "properties": {"OBJECTID": 8, "SIAGAS": 3500023106.0, "UF": "MS", "MUNICIPIO": "Sonora", "LAT": -17.58, "LOG": -54.755833, "AQUIF_CAP": "Furnas", "SIGLA": "D1f", "Q_m3_h": 38.0, "q_m3_h_m": 1.767, "NE_m": 11.7, "ND_m": 33.0, "PROF_m": 67.0, "T_m2_s": null, "K_m_s": null, "CE_\u00b5S_cm": null, "Rotulo": "<und>38 - 1,767 - 11,7 - 33</und>\r\n67 -   -   -", "HE_REPR": "0 a 67 (67) - (3Gr) D1f"}, "geometry": {"type": "Point", "coordinates": [-54.75583299999994, -17.579999999999927]}}, {"type": "Feature", "properties": {"OBJECTID": 10, "SIAGAS": 3500023119.0, "UF": "MS", "MUNICIPIO": "Corumba", "LAT": -19.318888, "LOG": -57.449722, "AQUIF_CAP": "Corumb\u00e1", "SIGLA": "NP3co", "Q_m3_h": 20.0, "q_m3_h_m": 0.0, "NE_m": 15.0, "ND_m": 0.0, "PROF_m": 58.0, "T_m2_s": null, "K_m_s": null, "CE_\u00b5S_cm": null, "Rotulo": "<und>15 -   - 15 -  </und>\r\n58 -   -   -", "HE_REPR": "0 a 58 (58) - (4K) NP3co"}, "geometry": {"type": "Point", "coordinates": [-57.44972199999995, -19.31888799999996]}}, {"type": "Feature", "properties": {"OBJECTID": 11, "SIAGAS": 3500022779.0, "UF": "MS", "MUNICIPIO": "Caracol", "LAT": -22.018611, "LOG": -57.017222, "AQUIF_CAP": "Embasamento Indiferenciado", "SIGLA": "Fr", "Q_m3_h": 4.6, "q_m3_h_m": 0.0, "NE_m": 1.5, "ND_m": 0.0, "PROF_m": 81.0, "T_m2_s": null, "K_m_s": null, "CE_\u00b5S_cm": null, "Rotulo": "<und>4,6 -   - 1,5 -  </und>\r\n81 -   -   -", "HE_REPR": "0 a 81 (81) - (5Fr) Fr"}, "geometry": {"type": "Point", "coordinates": [-57.01722199999995, -22.018610999999964]}}, {"type": "Feature", "properties": {"OBJECTID": 12, "SIAGAS": 3500023123.0, "UF": "MS", "MUNICIPIO": "Miranda", "LAT": -20.533888, "LOG": -56.185555, "AQUIF_CAP": "Cuiab\u00e1", "SIGLA": "NPcu", "Q_m3_h": 6.6, "q_m3_h_m": 0.0, "NE_m": 13.5, "ND_m": 0.0, "PROF_m": 88.0, "T_m2_s": null, "K_m_s": null, "CE_\u00b5S_cm": null, "Rotulo": "<und>6,6 -   - 13,5 - </und>\r\n88 -   -   -", "HE_REPR": "0 a 88 (88) - (5Fr) NPcu"}, "geometry": {"type": "Point", "coordinates": [-56.185554999999965, -20.533887999999934]}}, {"type": "Feature", "properties": {"OBJECTID": 13, "SIAGAS": 3500065056.0, "UF": "MS", "MUNICIPIO": "Figueirao", "LAT": -18.676944, "LOG": -53.637778, "AQUIF_CAP": "Guarani", "SIGLA": "J1K3bt", "Q_m3_h": 58.6, "q_m3_h_m": 1.0, "NE_m": 7.4, "ND_m": 66.0, "PROF_m": 139.4, "T_m2_s": "0,00052", "K_m_s": "0,000004", "CE_\u00b5S_cm": null, "Rotulo": "<und>        58,6 - 1,0 - 7,4 - 66       </und>\r\n139 - 5,2 x 10<sup>-4</sup> - 4,0 x 10<sup>-6</sup>  -", "HE_REPR": "0 a 139 (139) - (3Gr) K1K3bt"}, "geometry": {"type": "Point", "coordinates": [-53.63777799999997, -18.676943999999935]}}, {"type": "Feature", "properties": {"OBJECTID": 14, "SIAGAS": 3500023117.0, "UF": "MS", "MUNICIPIO": "Rio brilhante", "LAT": -21.785555, "LOG": -54.751666, "AQUIF_CAP": "Serra Geral", "SIGLA": "K1\u03b2sg", "Q_m3_h": 25.0, "q_m3_h_m": 0.0, "NE_m": 5.0, "ND_m": 0.0, "PROF_m": 135.0, "T_m2_s": null, "K_m_s": null, "CE_\u00b5S_cm": null, "Rotulo": "<und>25 -   - 5 -  </und>\r\n135 -   -   -", "HE_REPR": "0 a 135 (135) - (4Fr) K1\u03b2sg"}, "geometry": {"type": "Point", "coordinates": [-54.75166599999994, -21.78555499999993]}}, {"type": "Feature", "properties": {"OBJECTID": 16, "SIAGAS": 3500027028.0, "UF": "MS", "MUNICIPIO": "Anaurilandia", "LAT": -22.171111, "LOG": -52.694167, "AQUIF_CAP": "Caiu\u00e1", "SIGLA": "K2c", "Q_m3_h": 40.6, "q_m3_h_m": 1.702, "NE_m": 23.8, "ND_m": 47.66, "PROF_m": 120.0, "T_m2_s": null, "K_m_s": null, "CE_\u00b5S_cm": null, "Rotulo": "<und>40,6 - 1,702 - 23,8 - 47,7</und>\r\n120 -   -   -", "HE_REPR": "0 a 120 (120) - (3Gr) K2c"}, "geometry": {"type": "Point", "coordinates": [-52.694166999999936, -22.17111099999994]}}, {"type": "Feature", "properties": {"OBJECTID": 17, "SIAGAS": 3500065000.0, "UF": "MS", "MUNICIPIO": "Agua clara", "LAT": -20.44, "LOG": -52.874722, "AQUIF_CAP": "Caiu\u00e1", "SIGLA": "K2c", "Q_m3_h": 18.0, "q_m3_h_m": 0.655, "NE_m": 9.5, "ND_m": 37.0, "PROF_m": 62.0, "T_m2_s": "0,00015", "K_m_s": "0,0000029", "CE_\u00b5S_cm": null, "Rotulo": "<und>       18 - 0,655 - 9,5 - 37       </und>\r\n62 - 1,5 x 10<sup>-4</sup> - 2,5 x 10<sup>-6</sup> -", "HE_REPR": "0 a 62 (62) - (4Gr) K2c"}, "geometry": {"type": "Point", "coordinates": [-52.87472199999996, -20.43999999999994]}}, {"type": "Feature", "properties": {"OBJECTID": 18, "SIAGAS": 3500023220.0, "UF": "MS", "MUNICIPIO": "Corguinho", "LAT": -19.831388, "LOG": -54.830555, "AQUIF_CAP": "Guarani", "SIGLA": "J3K1bt", "Q_m3_h": 28.8, "q_m3_h_m": 1.31, "NE_m": 19.0, "ND_m": 41.0, "PROF_m": 150.0, "T_m2_s": null, "K_m_s": null, "CE_\u00b5S_cm": null, "Rotulo": "<und>28,8 - 1,31 - 19 - 41</und>\r\n150 -   -   -", "HE_REPR": "0 a 150 (150) - (3Gr) J1K3bt"}, "geometry": {"type": "Point", "coordinates": [-54.83055499999995, -19.831387999999947]}}, {"type": "Feature", "properties": {"OBJECTID": 21, "SIAGAS": 3500027230.0, "UF": "MS", "MUNICIPIO": "Paranaiba", "LAT": -19.698611, "LOG": -51.170278, "AQUIF_CAP": "Bauru", "SIGLA": "K2b", "Q_m3_h": 25.0, "q_m3_h_m": 1.263, "NE_m": 11.2, "ND_m": 31.0, "PROF_m": 77.0, "T_m2_s": null, "K_m_s": null, "CE_\u00b5S_cm": null, "Rotulo": "<und>25 - 1,263 - 11,2 - 31</und>\r\n77 -   -   -", "HE_REPR": "0 a 77 (77) - (4Gr) K2b"}, "geometry": {"type": "Point", "coordinates": [-51.17027799999994, -19.69861099999997]}}, {"type": "Feature", "properties": {"OBJECTID": 22, "SIAGAS": 3500022612.0, "UF": "MS", "MUNICIPIO": "Rio verde de mato grosso", "LAT": -18.923888, "LOG": -54.847222, "AQUIF_CAP": "Furnas", "SIGLA": "D1f", "Q_m3_h": 42.0, "q_m3_h_m": 1.651, "NE_m": 6.0, "ND_m": 32.0, "PROF_m": 99.0, "T_m2_s": null, "K_m_s": null, "CE_\u00b5S_cm": null, "Rotulo": "<und>42 - 1,651 - 6 - 32</und>\r\n99 -   -   -", "HE_REPR": "0 a 4 (4) - (6Gr) Dpg; 4 a 99 (95) - (3Gr) D1f"}, "geometry": {"type": "Point", "coordinates": [-54.84722199999993, -18.923887999999977]}}, {"type": "Feature", "properties": {"OBJECTID": 23, "SIAGAS": 3500022979.0, "UF": "MS", "MUNICIPIO": "Santa rita do pardo", "LAT": -21.292777, "LOG": -52.825833, "AQUIF_CAP": "Caiu\u00e1", "SIGLA": "K2c", "Q_m3_h": 11.6, "q_m3_h_m": 0.138, "NE_m": 5.0, "ND_m": 89.1, "PROF_m": 126.0, "T_m2_s": null, "K_m_s": null, "CE_\u00b5S_cm": null, "Rotulo": "<und>11,6 - 0,138 - 5 - 89,1</und>\r\n126 -   -   -", "HE_REPR": "0 a 126 (126) - (4Gr) K2c"}, "geometry": {"type": "Point", "coordinates": [-52.82583299999993, -21.292776999999944]}}, {"type": "Feature", "properties": {"OBJECTID": 24, "SIAGAS": 3500065090.0, "UF": "MS", "MUNICIPIO": "Antonio joao", "LAT": -22.151944, "LOG": -56.178889, "AQUIF_CAP": "Guarani", "SIGLA": "J3K1bt", "Q_m3_h": 11.3, "q_m3_h_m": 0.595, "NE_m": 40.0, "ND_m": 59.0, "PROF_m": 120.0, "T_m2_s": null, "K_m_s": null, "CE_\u00b5S_cm": null, "Rotulo": "<und>11,3 - 0,595 - 40 - 59</und>\r\n120 -   -   -", "HE_REPR": "0 a 120 (120) - (3Gr) D1f"}, "geometry": {"type": "Point", "coordinates": [-56.17888899999997, -22.151943999999958]}}, {"type": "Feature", "properties": {"OBJECTID": 25, "SIAGAS": 0.0, "UF": "MS", "MUNICIPIO": "Nioaque", "LAT": -20.991389, "LOG": -56.153889, "AQUIF_CAP": "Aquidauana", "SIGLA": "C2P1a", "Q_m3_h": 8.7, "q_m3_h_m": 0.591, "NE_m": 13.0, "ND_m": 27.8, "PROF_m": 100.0, "T_m2_s": null, "K_m_s": null, "CE_\u00b5S_cm": "122,6", "Rotulo": "<und>8,7 - 0,591 - 13 - 27,8</und>\r\n100 -   -   - 122,6", "HE_REPR": "0 a 100 (100) - (4Gr) C2P1a"}, "geometry": {"type": "Point", "coordinates": [-56.153888999999936, -20.99138899999997]}}, {"type": "Feature", "properties": {"OBJECTID": 26, "SIAGAS": 3500022803.0, "UF": "MS", "MUNICIPIO": "Aquidauana", "LAT": -20.476666, "LOG": -55.54, "AQUIF_CAP": "Aquidauana", "SIGLA": "C2P1a", "Q_m3_h": 11.5, "q_m3_h_m": 0.33, "NE_m": 10.0, "ND_m": 44.9, "PROF_m": 150.0, "T_m2_s": null, "K_m_s": null, "CE_\u00b5S_cm": null, "Rotulo": "<und>11,5 - 0,33 - 10 - 44,9</und>\r\n150 -   -   -", "HE_REPR": "0 a 150 (150) - (4Gr) C2P1a"}, "geometry": {"type": "Point", "coordinates": [-55.539999999999964, -20.476665999999966]}}, {"type": "Feature", "properties": {"OBJECTID": 27, "SIAGAS": 3500022794.0, "UF": "MS", "MUNICIPIO": "Bodoquena", "LAT": -20.534722, "LOG": -56.901944, "AQUIF_CAP": "Corumb\u00e1", "SIGLA": "NP3co", "Q_m3_h": 10.3, "q_m3_h_m": 0.0, "NE_m": 3.15, "ND_m": 0.0, "PROF_m": 90.0, "T_m2_s": null, "K_m_s": null, "CE_\u00b5S_cm": null, "Rotulo": "<und>10,3 -   - 3,15 -  </und>\r\n90 -   -   -", "HE_REPR": "0 a 90 (90) - (4K) NP3co"}, "geometry": {"type": "Point", "coordinates": [-56.90194399999996, -20.53472199999993]}}, {"type": "Feature", "properties": {"OBJECTID": 28, "SIAGAS": 3500022976.0, "UF": "MS", "MUNICIPIO": "Selviria", "LAT": -20.359444, "LOG": -51.427222, "AQUIF_CAP": "Serra Geral", "SIGLA": "K1\u03b2sg", "Q_m3_h": 17.0, "q_m3_h_m": 0.0, "NE_m": 16.0, "ND_m": 0.0, "PROF_m": 96.0, "T_m2_s": null, "K_m_s": null, "CE_\u00b5S_cm": null, "Rotulo": "<und>17 -   - 16 -  </und>\r\n96 -   -   -", "HE_REPR": "0 a 30 (30 - (3Gr) K2c; 30 a 96 (66) - (4Fr) K1\u03b2sg"}, "geometry": {"type": "Point", "coordinates": [-51.42722199999997, -20.35944399999994]}}]}